OBJECT_NAME,OBJECT_ID,EPOCH,MEAN_MOTION,ECCENTRICITY,INCLINATION,RA_OF_ASC_NODE,ARG_OF_PERICENTER,MEAN_ANOMALY,EPHEMERIS_TYPE,CLASSIFICATION_TYPE,NORAD_CAT_ID,ELEMENT_SET_NO,REV_AT_EPOCH,BSTAR,MEAN_MOTION_DOT,MEAN_MOTION_DDOT
TIANMU-1 21,2023-208C,2026-07-15T03:25:16.140288,15.35551418,.0006677,97.4532,316.0635,204.2837,155.8093,0,U,58662,999,14185,.16279E-3,.5545E-4,0
TIANMU-1 22,2023-208D,2026-07-15T05:42:28.077408,15.31427598,.000275,97.4526,312.6034,218.1812,141.9234,0,U,58663,999,14162,.14322E-3,.4268E-4,0
TIANMU-1 15,2024-004A,2026-07-15T05:06:24.875424,15.26913929,.0006042,97.4667,22.4034,228.5009,131.5712,0,U,58700,999,14005,.11606E-3,.2993E-4,0
TIANMU-1 16,2024-004B,2026-07-15T04:51:14.666976,15.27016620,.0004451,97.4614,21.6095,245.6993,114.3781,0,U,58701,999,14005,.10834E-3,.2798E-4,0
TIANMU-1 17,2024-004C,2026-07-15T04:30:20.336832,15.27014559,.0003914,97.4641,22.0901,251.9772,108.1040,0,U,58702,999,14004,.11353E-3,.2935E-4,0
TIANMU-1 18,2024-004D,2026-07-15T03:55:54.289920,15.26929834,.0003756,97.4659,22.3289,224.7961,135.2975,0,U,58703,999,14004,.11338E-3,.2923E-4,0
INSAT-3DS,2024-033A,2026-07-15T03:53:38.699808,1.00270883,.0001053,0.0913,264.7136,224.7540,304.0251,0,U,58990,999,4734,0,-.165E-5,0
METEOR-M2 4,2024-039A,2026-07-15T04:18:31.392864,14.22432116,.0008257,98.7025,155.1280,88.8078,271.4046,0,U,59051,999,12324,.92892E-5,-.23E-6,0
GOES 19,2024-119A,2026-07-15T02:44:52.419840,1.00271519,.0000414,0.0104,115.3287,96.0012,47.6569,0,U,60133,999,724,0,-.258E-5,0
MTG-S1,2025-143A,2026-07-15T03:06:09.321984,1.00273517,.0003454,0.5847,345.0838,261.3988,92.6300,0,U,64723,999,369,0,-.16E-6,0
METOP-SGA1,2025-172A,2026-07-14T18:20:46.629312,14.19819127,.00070989,98.6631,254.9090,333.3306,26.7504,0,U,65159,999,4770,.2916334E-4,.19E-6,0
FENGYUN 3H,2025-219A,2026-07-14T19:18:46.256256,14.19924781,.0001158,98.6771,136.0376,62.6327,297.4968,0,U,65815,999,4130,.23672328E-4,.7E-7,0
