TIANMU-1 21             
1 58662U 23208C   26196.14254792  .00005545  00000+0  16279-3 0  9996
2 58662  97.4532 316.0635 0006677 204.2837 155.8093 15.35551418141853
TIANMU-1 22             
1 58663U 23208D   26196.23782497  .00004268  00000+0  14322-3 0  9993
2 58663  97.4526 312.6034 0002750 218.1812 141.9234 15.31427598141622
TIANMU-1 15             
1 58700U 24004A   26196.21278791  .00002993  00000+0  11606-3 0  9990
2 58700  97.4667  22.4034 0006042 228.5009 131.5712 15.26913929140051
TIANMU-1 16             
1 58701U 24004B   26196.20225309  .00002798  00000+0  10834-3 0  9992
2 58701  97.4614  21.6095 0004451 245.6993 114.3781 15.27016620140054
TIANMU-1 17             
1 58702U 24004C   26196.18773538  .00002935  00000+0  11353-3 0  9992
2 58702  97.4641  22.0901 0003914 251.9772 108.1040 15.27014559140041
TIANMU-1 18             
1 58703U 24004D   26196.16382280  .00002923  00000+0  11338-3 0  9991
2 58703  97.4659  22.3289 0003756 224.7961 135.2975 15.26929834140043
INSAT-3DS               
1 58990U 24033A   26196.16225347 -.00000165  00000+0  00000+0 0  9998
2 58990   0.0913 264.7136 0001053 224.7540 304.0251  1.00270883 47340
METEOR-M2 4             
1 59051U 24039A   26196.17953001 -.00000023  00000+0  92892-5 0  9998
2 59051  98.7025 155.1280 0008257  88.8078 271.4046 14.22432116123248
GOES 19                 
1 60133U 24119A   26196.11449560 -.00000258  00000+0  00000+0 0  9998
2 60133   0.0104 115.3287 0000414  96.0012  47.6569  1.00271519  7240
MTG-S1                  
1 64723U 25143A   26196.12927456 -.00000016  00000+0  00000+0 0  9993
2 64723   0.5847 345.0838 0003454 261.3988  92.6300  1.00273517  3696
METOP-SGA1              
1 65159U 25172A   26195.76442858  .00000019  00000+0  29163-4 0  9994
2 65159  98.6631 254.9090 0007098 333.3306  26.7504 14.19819127 47700
FENGYUN 3H              
1 65815U 25219A   26195.80470204  .00000007  00000+0  23672-4 0  9992
2 65815  98.6771 136.0376 0001158  62.6327 297.4968 14.19924781 41301
